[
    {
        "Altitude(m)": 607895.799301088,
        "Argument of Periapsis(deg)": 0.0,
        "Eccentricity": 0.0,
        "Inclination(deg)": 60.0,
        "Latitude(deg)": 40.998290609761,
        "Longitude(deg)": -24.91142843896973,
        "Mean Anomaly(deg)": -229.09089999999998,
        "RAAN(deg)": 285.0,
        "Satellite Name": "Test1 1262",
        "Satellite Number": 1262,
        "Semi-Major Axis(m)": 6980739.136638005,
        "Time(s)": 0
    },
    {
        "Altitude(m)": 607795.1124633297,
        "Argument of Periapsis(deg)": 0.00010418945913296404,
        "Eccentricity": 0.0,
        "Inclination(deg)": 60.0,
        "Latitude(deg)": 40.53061560894314,
        "Longitude(deg)": -24.41483374992609,
        "Mean Anomaly(deg)": -228.4707938545382,
        "RAAN(deg)": 284.9995799508602,
        "Satellite Name": "Test1 1262",
        "Satellite Number": 1262,
        "Semi-Major Axis(m)": 6980739.136638005,
        "Time(s)": 10
    },
    {
        "Altitude(m)": 607694.6011762758,
        "Argument of Periapsis(deg)": 0.0002083789182659281,
        "Eccentricity": 0.0,
        "Inclination(deg)": 60.0,
        "Latitude(deg)": 40.06043064967942,
        "Longitude(deg)": -23.92567991749159,
        "Mean Anomaly(deg)": -227.85068770907634,
        "RAAN(deg)": 284.9991599017205,
        "Satellite Name": "Test1 1262",
        "Satellite Number": 1262,
        "Semi-Major Axis(m)": 6980739.136638005,
        "Time(s)": 20
    },
    {
        "Altitude(m)": 607594.3291385287,
        "Argument of Periapsis(deg)": 0.00031256837739889213,
        "Eccentricity": 0.0,
        "Inclination(deg)": 60.0,
        "Latitude(deg)": 39.587809305764786,
        "Longitude(deg)": -23.443781336877226,
        "Mean Anomaly(deg)": -227.23058156361452,
        "RAAN(deg)": 284.9987398525808,
        "Satellite Name": "Test1 1262",
        "Satellite Number": 1262,
        "Semi-Major Axis(m)": 6980739.136638005,
        "Time(s)": 30
    },
    {
        "Altitude(m)": 607494.3601490357,
        "Argument of Periapsis(deg)": 0.0004167578365318562,
        "Eccentricity": 0.0,
        "Inclination(deg)": 60.0,
        "Latitude(deg)": 39.11282291084205,
        "Longitude(deg)": -22.968955443155046,
        "Mean Anomaly(deg)": -226.61047541815267,
        "RAAN(deg)": 284.998319803441,
        "Satellite Name": "Test1 1262",
        "Satellite Number": 1262,
        "Semi-Major Axis(m)": 6980739.136638005,
        "Time(s)": 40
    },
    {
        "Altitude(m)": 607394.7580752036,
        "Argument of Periapsis(deg)": 0.0005209472956648203,
        "Eccentricity": 0.0,
        "Inclination(deg)": 60.0,
        "Latitude(deg)": 38.63554063176017,
        "Longitude(deg)": -22.50102373170652,
        "Mean Anomaly(deg)": -225.99036927269083,
        "RAAN(deg)": 284.9978997543013,
        "Satellite Name": "Test1 1262",
        "Satellite Number": 1262,
        "Semi-Major Axis(m)": 6980739.136638005,
        "Time(s)": 50
    },
    {
        "Altitude(m)": 607295.5868208987,
        "Argument of Periapsis(deg)": 0.0006251367547977843,
        "Eccentricity": 0.0,
        "Inclination(deg)": 60.0,
        "Latitude(deg)": 38.15602954039477,
        "Longitude(deg)": -22.039811254981068,
        "Mean Anomaly(deg)": -225.37026312722898,
        "RAAN(deg)": 284.99747970516154,
        "Satellite Name": "Test1 1262",
        "Satellite Number": 1262,
        "Semi-Major Axis(m)": 6980739.136638005,
        "Time(s)": 60
    },
    {
        "Altitude(m)": 607196.910294371,
        "Argument of Periapsis(deg)": 0.0007293262139307483,
        "Eccentricity": 0.0,
        "Inclination(deg)": 60.0,
        "Latitude(deg)": 37.67435468386145,
        "Longitude(deg)": -21.585146109569983,
        "Mean Anomaly(deg)": -224.7501569817672,
        "RAAN(deg)": 284.9970596560218,
        "Satellite Name": "Test1 1262",
        "Satellite Number": 1262,
        "Semi-Major Axis(m)": 6980739.136638005,
        "Time(s)": 70
    },
    {
        "Altitude(m)": 607098.7923761482,
        "Argument of Periapsis(deg)": 0.0008335156730637124,
        "Eccentricity": 0.0,
        "Inclination(deg)": 60.0,
        "Latitude(deg)": 37.1905791530659,
        "Longitude(deg)": -21.136860427513472,
        "Mean Anomaly(deg)": -224.13005083630534,
        "RAAN(deg)": 284.99663960688207,
        "Satellite Name": "Test1 1262",
        "Satellite Number": 1262,
        "Semi-Major Axis(m)": 6980739.136638005,
        "Time(s)": 80
    },
    {
        "Altitude(m)": 607001.296886871,
        "Argument of Periapsis(deg)": 0.0009377051321966765,
        "Eccentricity": 0.0,
        "Inclination(deg)": 60.0,
        "Latitude(deg)": 36.704764149556524,
        "Longitude(deg)": -20.694789847058466,
        "Mean Anomaly(deg)": -223.50994469084353,
        "RAAN(deg)": 284.9962195577423,
        "Satellite Name": "Test1 1262",
        "Satellite Number": 1262,
        "Semi-Major Axis(m)": 6980739.136638005,
        "Time(s)": 90
    },
    {
        "Altitude(m)": 606904.4875551041,
        "Argument of Periapsis(deg)": 0.0010418945913296407,
        "Eccentricity": 0.0,
        "Inclination(deg)": 60.0,
        "Latitude(deg)": 36.21696905064922,
        "Longitude(deg)": -20.258772976620783,
        "Mean Anomaly(deg)": -222.88983854538174,
        "RAAN(deg)": 284.99579950860254,
        "Satellite Name": "Test1 1262",
        "Satellite Number": 1262,
        "Semi-Major Axis(m)": 6980739.136638005,
        "Time(s)": 100
    },
    {
        "Altitude(m)": 606808.4279851562,
        "Argument of Periapsis(deg)": 0.0011460840504626045,
        "Eccentricity": 0.0,
        "Inclination(deg)": 60.0,
        "Latitude(deg)": 35.727251472804866,
        "Longitude(deg)": -19.828652365634856,
        "Mean Anomaly(deg)": -222.2697323999199,
        "RAAN(deg)": 284.99537945946287,
        "Satellite Name": "Test1 1262",
        "Satellite Number": 1262,
        "Semi-Major Axis(m)": 6980739.136638005,
        "Time(s)": 110
    },
    {
        "Altitude(m)": 606713.1816248731,
        "Argument of Periapsis(deg)": 0.0012502735095955685,
        "Eccentricity": 0.0,
        "Inclination(deg)": 60.0,
        "Latitude(deg)": 35.23566733325572,
        "Longitude(deg)": -19.404273957285227,
        "Mean Anomaly(deg)": -221.64962625445807,
        "RAAN(deg)": 284.9949594103231,
        "Satellite Name": "Test1 1262",
        "Satellite Number": 1262,
        "Semi-Major Axis(m)": 6980739.136638005,
        "Time(s)": 120
    },
    {
        "Altitude(m)": 606618.8117334788,
        "Argument of Periapsis(deg)": 0.0013544629687285324,
        "Eccentricity": 0.0,
        "Inclination(deg)": 60.0,
        "Latitude(deg)": 34.74227090987897,
        "Longitude(deg)": -18.985486536668407,
        "Mean Anomaly(deg)": -221.0295201089962,
        "RAAN(deg)": 284.99453936118334,
        "Satellite Name": "Test1 1262",
        "Satellite Number": 1262,
        "Semi-Major Axis(m)": 6980739.136638005,
        "Time(s)": 130
    },
    {
        "Altitude(m)": 606525.3813494606,
        "Argument of Periapsis(deg)": 0.0014586524278614966,
        "Eccentricity": 0.0,
        "Inclination(deg)": 60.0,
        "Latitude(deg)": 34.24711489932115,
        "Longitude(deg)": -18.572142687873452,
        "Mean Anomaly(deg)": -220.40941396353435,
        "RAAN(deg)": 284.99411931204355,
        "Satellite Name": "Test1 1262",
        "Satellite Number": 1262,
        "Semi-Major Axis(m)": 6980739.136638005,
        "Time(s)": 140
    },
    {
        "Altitude(m)": 606432.9532584664,
        "Argument of Periapsis(deg)": 0.0015628418869944607,
        "Eccentricity": 0.0,
        "Inclination(deg)": 60.0,
        "Latitude(deg)": 33.7502504733923,
        "Longitude(deg)": -18.164098234797518,
        "Mean Anomaly(deg)": -219.78930781807256,
        "RAAN(deg)": 284.9936992629039,
        "Satellite Name": "Test1 1262",
        "Satellite Number": 1262,
        "Semi-Major Axis(m)": 6980739.136638005,
        "Time(s)": 150
    },
    {
        "Altitude(m)": 606341.5899613305,
        "Argument of Periapsis(deg)": 0.0016670313461274247,
        "Eccentricity": 0.0,
        "Inclination(deg)": 60.0,
        "Latitude(deg)": 33.25172733374484,
        "Longitude(deg)": -17.761211679076645,
        "Mean Anomaly(deg)": -219.1692016726107,
        "RAAN(deg)": 284.99327921376414,
        "Satellite Name": "Test1 1262",
        "Satellite Number": 1262,
        "Semi-Major Axis(m)": 6980739.136638005,
        "Time(s)": 160
    },
    {
        "Altitude(m)": 606251.3536421341,
        "Argument of Periapsis(deg)": 0.0017712208052603888,
        "Eccentricity": 0.0,
        "Inclination(deg)": 60.0,
        "Latitude(deg)": 32.751593764858605,
        "Longitude(deg)": -17.363345148466788,
        "Mean Anomaly(deg)": -218.54909552714886,
        "RAAN(deg)": 284.99285916462435,
        "Satellite Name": "Test1 1262",
        "Satellite Number": 1262,
        "Semi-Major Axis(m)": 6980739.136638005,
        "Time(s)": 170
    },
    {
        "Altitude(m)": 606162.3061363872,
        "Argument of Periapsis(deg)": 0.001875410264393353,
        "Eccentricity": 0.0,
        "Inclination(deg)": 60.0,
        "Latitude(deg)": 32.24989668536262,
        "Longitude(deg)": -16.97036383034665,
        "Mean Anomaly(deg)": -217.92898938168705,
        "RAAN(deg)": 284.9924391154846,
        "Satellite Name": "Test1 1262",
        "Satellite Number": 1262,
        "Semi-Major Axis(m)": 6980739.136638005,
        "Time(s)": 180
    },
    {
        "Altitude(m)": 606074.508899334,
        "Argument of Periapsis(deg)": 0.0019795997235263173,
        "Eccentricity": 0.0,
        "Inclination(deg)": 60.0,
        "Latitude(deg)": 31.746681697722064,
        "Longitude(deg)": -16.582135403591103,
        "Mean Anomaly(deg)": -217.3088832362252,
        "RAAN(deg)": 284.99201906634494,
        "Satellite Name": "Test1 1262",
        "Satellite Number": 1262,
        "Semi-Major Axis(m)": 6980739.136638005,
        "Time(s)": 190
    }
]